{
  "links" : {
    "next" : "https://api.nasa.gov/neo/rest/v1/feed?start_date=2001-03-09&end_date=2001-03-09&detailed=true&api_key=t0TVs3DtDT2H8Oy2Zy8m2eVrNsAVKAexjcZXUckd",
    "prev" : "https://api.nasa.gov/neo/rest/v1/feed?start_date=2001-03-07&end_date=2001-03-07&detailed=true&api_key=t0TVs3DtDT2H8Oy2Zy8m2eVrNsAVKAexjcZXUckd",
    "self" : "https://api.nasa.gov/neo/rest/v1/feed?start_date=2001-03-08&end_date=2001-03-08&detailed=true&api_key=t0TVs3DtDT2H8Oy2Zy8m2eVrNsAVKAexjcZXUckd"
  },
  "element_count" : 7,
  "near_earth_objects" : {
    "2001-03-08" : [ {
      "links" : {
        "self" : "https://api.nasa.gov/neo/rest/v1/neo/3273449?api_key=t0TVs3DtDT2H8Oy2Zy8m2eVrNsAVKAexjcZXUckd"
      },
      "neo_reference_id" : "3273449",
      "name" : "(2005 EF)",
      "nasa_jpl_url" : "http://ssd.jpl.nasa.gov/sbdb.cgi?sstr=3273449",
      "absolute_magnitude_h" : 20.7,
      "estimated_diameter" : {
        "kilometers" : {
          "estimated_diameter_min" : 0.1925550782,
          "estimated_diameter_max" : 0.4305662442
        },
        "meters" : {
          "estimated_diameter_min" : 192.5550781879,
          "estimated_diameter_max" : 430.566244241
        },
        "miles" : {
          "estimated_diameter_min" : 0.1196481415,
          "estimated_diameter_max" : 0.2675413778
        },
        "feet" : {
          "estimated_diameter_min" : 631.7424027221,
          "estimated_diameter_max" : 1412.6189567557
        }
      },
      "is_potentially_hazardous_asteroid" : false,
      "close_approach_data" : [ {
        "close_approach_date" : "2001-03-08",
        "epoch_date_close_approach" : 984038400000,
        "relative_velocity" : {
          "kilometers_per_second" : "9.6756078668",
          "kilometers_per_hour" : "34832.1883205413",
          "miles_per_hour" : "21643.367237283"
        },
        "miss_distance" : {
          "astronomical" : "0.28949992",
          "lunar" : "112.6154632568",
          "kilometers" : "43308572",
          "miles" : "26910698"
        },
        "orbiting_body" : "Earth"
      } ],
      "orbital_data" : {
        "orbit_id" : "66",
        "orbit_determination_date" : "2017-09-22 06:48:44",
        "orbit_uncertainty" : "0",
        "minimum_orbit_intersection" : ".145352",
        "jupiter_tisserand_invariant" : "5.212",
        "epoch_osculation" : "2458000.5",
        "eccentricity" : ".1663912746466786",
        "semi_major_axis" : "1.206863444010813",
        "inclination" : "18.59275707551881",
        "ascending_node_longitude" : "350.7512648907148",
        "orbital_period" : "484.2678368470159",
        "perihelion_distance" : "1.006051897237373",
        "perihelion_argument" : "269.4690441336344",
        "aphelion_distance" : "1.407674990784253",
        "perihelion_time" : "2457901.393087074838",
        "mean_anomaly" : "73.67511517047009",
        "mean_motion" : ".7433902741588162",
        "equinox" : "J2000"
      }
    }, {
      "links" : {
        "self" : "https://api.nasa.gov/neo/rest/v1/neo/3368294?api_key=t0TVs3DtDT2H8Oy2Zy8m2eVrNsAVKAexjcZXUckd"
      },
      "neo_reference_id" : "3368294",
      "name" : "(2007 DA)",
      "nasa_jpl_url" : "http://ssd.jpl.nasa.gov/sbdb.cgi?sstr=3368294",
      "absolute_magnitude_h" : 22.4,
      "estimated_diameter" : {
        "kilometers" : {
          "estimated_diameter_min" : 0.0880146521,
          "estimated_diameter_max" : 0.1968067451
        },
        "meters" : {
          "estimated_diameter_min" : 88.0146520901,
          "estimated_diameter_max" : 196.8067450894
        },
        "miles" : {
          "estimated_diameter_min" : 0.0546897524,
          "estimated_diameter_max" : 0.122290004
        },
        "feet" : {
          "estimated_diameter_min" : 288.7619911632,
          "estimated_diameter_max" : 645.6914415591
        }
      },
      "is_potentially_hazardous_asteroid" : false,
      "close_approach_data" : [ {
        "close_approach_date" : "2001-03-08",
        "epoch_date_close_approach" : 984038400000,
        "relative_velocity" : {
          "kilometers_per_second" : "13.0901701382",
          "kilometers_per_hour" : "47124.6124974376",
          "miles_per_hour" : "29281.4015820884"
        },
        "miss_distance" : {
          "astronomical" : "0.4716339114",
          "lunar" : "183.4655914307",
          "kilometers" : "70555432",
          "miles" : "43841112"
        },
        "orbiting_body" : "Earth"
      } ],
      "orbital_data" : {
        "orbit_id" : "18",
        "orbit_determination_date" : "2017-04-06 09:07:00",
        "orbit_uncertainty" : "1",
        "minimum_orbit_intersection" : ".0200593",
        "jupiter_tisserand_invariant" : "5.873",
        "epoch_osculation" : "2458000.5",
        "eccentricity" : ".5737126516482606",
        "semi_major_axis" : "1.00986054070864",
        "inclination" : "2.75882662551541",
        "ascending_node_longitude" : "117.2995073059307",
        "orbital_period" : "370.6726400518484",
        "perihelion_distance" : ".4304907721037399",
        "perihelion_argument" : "262.069637273857",
        "aphelion_distance" : "1.58923030931354",
        "perihelion_time" : "2458159.381200453282",
        "mean_anomaly" : "205.6934071120515",
        "mean_motion" : ".9712073703353029",
        "equinox" : "J2000"
      }
    }, {
      "links" : {
        "self" : "https://api.nasa.gov/neo/rest/v1/neo/3404526?api_key=t0TVs3DtDT2H8Oy2Zy8m2eVrNsAVKAexjcZXUckd"
      },
      "neo_reference_id" : "3404526",
      "name" : "(2008 EL)",
      "nasa_jpl_url" : "http://ssd.jpl.nasa.gov/sbdb.cgi?sstr=3404526",
      "absolute_magnitude_h" : 22.2,
      "estimated_diameter" : {
        "kilometers" : {
          "estimated_diameter_min" : 0.096506147,
          "estimated_diameter_max" : 0.2157943048
        },
        "meters" : {
          "estimated_diameter_min" : 96.5061469579,
          "estimated_diameter_max" : 215.7943048444
        },
        "miles" : {
          "estimated_diameter_min" : 0.059966121,
          "estimated_diameter_max" : 0.134088323
        },
        "feet" : {
          "estimated_diameter_min" : 316.6212271853,
          "estimated_diameter_max" : 707.9865871058
        }
      },
      "is_potentially_hazardous_asteroid" : false,
      "close_approach_data" : [ {
        "close_approach_date" : "2001-03-08",
        "epoch_date_close_approach" : 984038400000,
        "relative_velocity" : {
          "kilometers_per_second" : "10.4346662502",
          "kilometers_per_hour" : "37564.7985008654",
          "miles_per_hour" : "23341.3049351628"
        },
        "miss_distance" : {
          "astronomical" : "0.3529874087",
          "lunar" : "137.3121032715",
          "kilometers" : "52806164",
          "miles" : "32812230"
        },
        "orbiting_body" : "Earth"
      } ],
      "orbital_data" : {
        "orbit_id" : "20",
        "orbit_determination_date" : "2017-04-06 09:04:11",
        "orbit_uncertainty" : "1",
        "minimum_orbit_intersection" : ".0100078",
        "jupiter_tisserand_invariant" : "5.491",
        "epoch_osculation" : "2458000.5",
        "eccentricity" : ".5387930363497254",
        "semi_major_axis" : "1.103329872136912",
        "inclination" : "3.156102565003792",
        "ascending_node_longitude" : "184.5960860435543",
        "orbital_period" : "423.3080152756132",
        "perihelion_distance" : ".5088634202329109",
        "perihelion_argument" : "102.4932858849819",
        "aphelion_distance" : "1.697796324040913",
        "perihelion_time" : "2457986.058530900470",
        "mean_anomaly" : "12.28166887519436",
        "mean_motion" : ".8504445628453462",
        "equinox" : "J2000"
      }
    } ]
  }
}